[{"OBJECT_NAME":"STARLINK-36132","OBJECT_ID":"2025-293AB","EPOCH":"2026-03-09T11:34:34.435200","MEAN_MOTION":14.98312738,"ECCENTRICITY":0.00038358,"INCLINATION":70.0004,"RA_OF_ASC_NODE":95.1029,"ARG_OF_PERICENTER":273.1454,"MEAN_ANOMALY":86.9266,"EPHEMERIS_TYPE":0,"CLASSIFICATION_TYPE":"U","NORAD_CAT_ID":67028,"ELEMENT_SET_NO":999,"REV_AT_EPOCH":1485,"BSTAR":-0.00069178118,"MEAN_MOTION_DOT":-8.334e-5,"MEAN_MOTION_DDOT":0},{"OBJECT_NAME":"COSMOS 252 DEB","OBJECT_ID":"1968-097DK","EPOCH":"2026-03-09T23:02:14.057088","MEAN_MOTION":13.06394575,"ECCENTRICITY":0.08894782,"INCLINATION":62.818,"RA_OF_ASC_NODE":238.5595,"ARG_OF_PERICENTER":209.7877,"MEAN_ANOMALY":144.9552,"EPHEMERIS_TYPE":0,"CLASSIFICATION_TYPE":"U","NORAD_CAT_ID":5871,"ELEMENT_SET_NO":999,"REV_AT_EPOCH":70061,"BSTAR":8.1069847e-5,"MEAN_MOTION_DOT":9.2e-7,"MEAN_MOTION_DDOT":0}]
